INTELSAT 21 (IS-21)     
1 38749U 12045A   26166.22292993 -.00000281  00000+0  00000+0 0  9992
2 38749   0.0181 333.0632 0001263 127.9734 184.7315  1.00270768 50508
INTELSAT 23 (IS-23)     
1 38867U 12057A   26166.18809943 -.00000281  00000+0  00000+0 0  9990
2 38867   0.0128   0.9226 0000359  80.6263 196.6485  1.00274270 49933
FM-6                    
1 39360U 13058A   26166.01642035 -.00000009  00000+0  00000+0 0  9998
2 39360   0.0025 353.8356 0002260 174.7386 344.2806  1.00259727 46054
INTELSAT 30 (IS-30)     
1 40271U 14062A   26165.95505883 -.00000146  00000+0  00000+0 0  9990
2 40271   0.0250  48.7853 0001229 319.0302 144.2054  1.00274470  6775
DIRECTV 14              
1 40333U 14078B   26165.95419218 -.00000120  00000+0  00000+0 0  9994
2 40333   0.0128  21.6834 0000382 248.8084 237.0174  1.00269958 42029
DIRECTV 15              
1 40663U 15026A   26166.17128211 -.00000098  00000+0  00000+0 0  9993
2 40663   0.0153  26.7316 0000281 249.0099 306.5094  1.00271081 40448
SKY MEXICO-1            
1 40664U 15026B   26166.20842328 -.00000230  00000+0  00000+0 0  9998
2 40664   0.0176   4.3544 0001991 102.2268 153.1497  1.00270638 40435
INTELSAT 34 (IS-34)     
1 40874U 15039A   26166.18668662 -.00000281  00000+0  00000+0 0  9995
2 40874   0.0106 336.9324 0000513 352.0648 306.2028  1.00271188 39617
INTELSAT 31 (IS-31)     
1 41581U 16035A   26166.22813985 -.00000147  00000+0  00000+0 0  9994
2 41581   0.0175 272.6392 0001158 337.5898   0.3710  1.00270923 36669
INTELSAT 36 (IS-36)     
1 41747U 16053A   26165.84481856 -.00000019  00000+0  00000+0 0  9991
2 41747   0.0108   2.9558 0002011 327.1608 305.6539  1.00271558 35934
INTELSAT 32E (IS-32E)   
1 41945U 17007B   26166.17916154 -.00000265  00000+0  00000+0 0  9995
2 41945   0.0056  40.0423 0000779 269.6287 335.1203  1.00270289 34207
INTELSAT 35E (IS-35E)   
1 42818U 17041A   26165.68187281  .00000000  00000+0  00000+0 0  9995
2 42818   0.0256  11.6725 0001533  69.5322  32.7564  1.00268183 32796
INTELSAT 37E (IS-37E)   
1 42950U 17059A   26166.18418823 -.00000136  00000+0  00000+0 0  9997
2 42950   0.0189  27.4261 0002337  79.1326 205.2347  1.00271875 32048
AZERSPACE 2 (IS-38)     
1 43632U 18074A   26166.01005258  .00000142  00000+0  00000+0 0  9995
2 43632   0.0143 338.7150 0001192 102.8293 230.4875  1.00269681 28421
HORIZONS-3E             
1 43633U 18074B   26165.65084600 -.00000024  00000+0  00000+0 0  9993
2 43633   0.0187 163.9480 0000966 106.2603  36.0409  1.00270601 28310
AT&T T-16               
1 44333U 19034A   26165.95393218 -.00000110  00000+0  00000+0 0  9995
2 44333   0.0168  52.8036 0000917 244.2232 208.7830  1.00270085 25619
INTELSAT 39 (IS-39)     
1 44476U 19049B   26165.99002154  .00000039  00000+0  00000+0 0  9998
2 44476   0.0025 346.6493 0000948 326.8079   8.1815  1.00270489 25107
GALAXY 30 (G-30)        
1 46114U 20056C   26166.01642035  .00000042  00000+0  00000+0 0  9995
2 46114   0.0174   6.0126 0002060  78.6755  59.5270  1.00270627 21276
GALAXY 33 (G-33)        
1 54026U 22128A   26165.73363028  .00000085  00000+0  00000+0 0  9995
2 54026   0.0133 348.4797 0001581  98.0955 307.5652  1.00271119 13711
GALAXY 34 (G-34)        
1 54027U 22128B   26165.73441028  .00000065  00000+0  00000+0 0  9991
2 54027   0.0147 347.5163 0001495 114.6990 296.2050  1.00275522 13888
GALAXY 31 (G-31)        
1 54243U 22153A   26166.01642035  .00000000  00000+0  00000+0 0  9991
2 54243   0.0202  23.3819 0000984  52.5467  72.2799  1.00270251  7113
GALAXY 32 (G-32)        
1 54244U 22153B   26165.95583884 -.00000197  00000+0  00000+0 0  9998
2 54244   0.0165 349.6788 0015287 254.3091 272.5395  1.00491998 13126
GALAXY 35 (G-35)        
1 54741U 22170A   26166.16572440  .00000000  00000+0  00000+0 0  9991
2 54741   0.0194  13.5267 0001785  73.0567 143.4247  1.00269046 12871
GALAXY 36 (G-36)        
1 54742U 22170B   26165.95627219 -.00000180  00000+0  00000+0 0  9993
2 54742   0.0414 118.9764 0002457 324.6382  74.8974  1.00270930 12751
GALAXY 37 (G-37)        
1 57493U 23112A   26166.16240807  .00000052  00000+0  00000+0 0  9991
2 57493   0.0226  58.7490 0001706  22.5921 113.5740  1.00271282 10520
